{"type":"FeatureCollection","metadata":{"source":"data/raw/Intermodal/intermodal_terminals_europe.geojson","source_sha256":"95235bfc67bbd80cb6af4c51983f525c654ce18971747307d9583a95cd6abc21","source_url":"https://www.intermodal-map.com/","classification_field":"kategorie","counts":{"Trimodal":91,"Schiene / Straße":109,"Wasserstraße / Straße":13},"excluded":{"Außerhalb Deutschlands":1360,"Containerdepot":49,"Anlage stillgelegt":1},"country_filter":{"field":"iso2","value":"DE"},"scope":"Terminalstandorte in Deutschland laut iso2=DE; unabhängig von Berichtsjahr und Mengenfiltern."},"features":[{"type":"Feature","geometry":{"type":"Point","coordinates":[8.494071,53.340675]},"properties":{"name":"J. MÜLLER Weser Hafen Brake","function":"Trimodales Terminal · Schiene / Wasserstraße / Straße"}},{"type":"Feature","geometry":{"type":"Point","coordinates":[10.476185,52.313568]},"properties":{"name":"Hafen Braunschweig Containerterminal","function":"Trimodales Terminal · Schiene / Wasserstraße / Straße"}},{"type":"Feature","geometry":{"type":"Point","coordinates":[8.724752,53.086028]},"properties":{"name":"ROLAND Umschlagsterminal Bremen","function":"Bimodales Terminal · Schiene / Straße"}},{"type":"Feature","geometry":{"type":"Point","coordinates":[8.531263,53.584684]},"properties":{"name":"EUROGATE Container Terminal Bremerhaven","function":"Trimodales Terminal · Schiene / Wasserstraße / Straße"}},{"type":"Feature","geometry":{"type":"Point","coordinates":[8.539757,53.57492]},"properties":{"name":"MSC Gate Bremerhaven","function":"Trimodales Terminal · Schiene / Wasserstraße / Straße"}},{"type":"Feature","geometry":{"type":"Point","coordinates":[8.521738,53.595772]},"properties":{"name":"North Sea Terminal Bremerhaven","function":"Bimodales Terminal · Wasserstraße / Straße"}},{"type":"Feature","geometry":{"type":"Point","coordinates":[8.523005,53.60026]},"properties":{"name":"RTB Bremerhaven","function":"Bimodales Terminal · Schiene / Straße"}},{"type":"Feature","geometry":{"type":"Point","coordinates":[9.174473,53.888641]},"properties":{"name":"Brunsbüttel Ports","function":"Trimodales Terminal · Schiene / Wasserstraße / Straße"}},{"type":"Feature","geometry":{"type":"Point","coordinates":[7.089592,50.758688]},"properties":{"name":"Am Zehnhoff-Söns Terminal Bonn","function":"Bimodales Terminal · Wasserstraße / Straße"}},{"type":"Feature","geometry":{"type":"Point","coordinates":[10.285383,50.97912]},"properties":{"name":"Captrain-Terminal Eisenach","function":"Bimodales Terminal · Schiene / Straße"}},{"type":"Feature","geometry":{"type":"Point","coordinates":[8.439487,51.879615]},"properties":{"name":"Raben Trans European Gütersloh","function":"Bimodales Terminal · Schiene / Straße"}},{"type":"Feature","geometry":{"type":"Point","coordinates":[12.191843,49.911698]},"properties":{"name":"Contargo Terminal Wiesau","function":"Bimodales Terminal · Schiene / Straße"}},{"type":"Feature","geometry":{"type":"Point","coordinates":[9.925313,52.992377]},"properties":{"name":"Weets Container Terminal Soltau","function":"Bimodales Terminal · Schiene / Straße"}},{"type":"Feature","geometry":{"type":"Point","coordinates":[10.770185,53.905369]},"properties":{"name":"Cargo-Terminal Lehmann Lübeck - CTL","function":"Trimodales Terminal · Schiene / Wasserstraße / Straße"}},{"type":"Feature","geometry":{"type":"Point","coordinates":[6.81949,51.084053]},"properties":{"name":"Chemion-Containerterminal 1 und 2 - Chempark Dormagen","function":"Bimodales Terminal · Schiene / Straße"}},{"type":"Feature","geometry":{"type":"Point","coordinates":[6.976966,51.019702]},"properties":{"name":"CHEMION Logistik GmbH","function":"Trimodales Terminal · Schiene / Wasserstraße / Straße"}},{"type":"Feature","geometry":{"type":"Point","coordinates":[9.923655,53.529238]},"properties":{"name":"HHLA Container Terminal Burchardkai CTB","function":"Trimodales Terminal · Schiene / Wasserstraße / Straße"}},{"type":"Feature","geometry":{"type":"Point","coordinates":[11.940583,51.523466]},"properties":{"name":"Container Terminal Halle Saale - CTHS","function":"Trimodales Terminal · Schiene / Wasserstraße / Straße"}},{"type":"Feature","geometry":{"type":"Point","coordinates":[7.996021,50.952131]},"properties":{"name":"Südwestfalen Container Terminal Kreuztal","function":"Bimodales Terminal · Schiene / Straße"}},{"type":"Feature","geometry":{"type":"Point","coordinates":[9.948395,53.535092]},"properties":{"name":"HHLA Container-Terminal Tollerort (CTT)","function":"Trimodales Terminal · Schiene / Wasserstraße / Straße"}},{"type":"Feature","geometry":{"type":"Point","coordinates":[7.429521,50.440227]},"properties":{"name":"Haeger & Schmidt Hafen Andernach","function":"Trimodales Terminal · Schiene / Wasserstraße / Straße"}},{"type":"Feature","geometry":{"type":"Point","coordinates":[6.606083,51.624128]},"properties":{"name":"Contargo Terminal Emmelsum","function":"Trimodales Terminal · Schiene / Wasserstraße / Straße"}},{"type":"Feature","geometry":{"type":"Point","coordinates":[8.716824,50.109519]},"properties":{"name":"Contargo Terminal Frankfurt-Ost","function":"Trimodales Terminal · Schiene / Wasserstraße / Straße"}},{"type":"Feature","geometry":{"type":"Point","coordinates":[8.528436,50.083093]},"properties":{"name":"Contargo Terminal Frankfurt-West","function":"Trimodales Terminal · Schiene / Wasserstraße / Straße"}},{"type":"Feature","geometry":{"type":"Point","coordinates":[8.375508,49.23911]},"properties":{"name":"Freyer Hafen Germersheim","function":"Bimodales Terminal · Wasserstraße / Straße"}},{"type":"Feature","geometry":{"type":"Point","coordinates":[11.923899,50.306408]},"properties":{"name":"CTH - Containterminal Hof","function":"Bimodales Terminal · Schiene / Straße"}},{"type":"Feature","geometry":{"type":"Point","coordinates":[8.321907,49.016995]},"properties":{"name":"Contargo Terminal Karlsruhe","function":"Trimodales Terminal · Schiene / Wasserstraße / Straße"}},{"type":"Feature","geometry":{"type":"Point","coordinates":[8.438539,49.459498]},"properties":{"name":"Contargo Terminal Ludwigshafen","function":"Trimodales Terminal · Schiene / Wasserstraße / Straße"}},{"type":"Feature","geometry":{"type":"Point","coordinates":[8.452491,49.490285]},"properties":{"name":"Contargo Rhein-Neckar Mannheim","function":"Trimodales Terminal · Schiene / Wasserstraße / Straße"}},{"type":"Feature","geometry":{"type":"Point","coordinates":[6.709274,51.217341]},"properties":{"name":"Contargo Terminal Neuss Floßhafenstraße","function":"Trimodales Terminal · Schiene / Wasserstraße / Straße"}},{"type":"Feature","geometry":{"type":"Point","coordinates":[6.708767,51.213367]},"properties":{"name":"Contargo Terminal Neuss Tilsiter Straße","function":"Trimodales Terminal · Schiene / Wasserstraße / Straße"}},{"type":"Feature","geometry":{"type":"Point","coordinates":[8.297101,49.057016]},"properties":{"name":"Contargo Terminal Wörth","function":"Trimodales Terminal · Schiene / Wasserstraße / Straße"}},{"type":"Feature","geometry":{"type":"Point","coordinates":[7.774278,53.029548]},"properties":{"name":"c-Port Küstenkanal Saterland","function":"Bimodales Terminal · Wasserstraße / Straße"}},{"type":"Feature","geometry":{"type":"Point","coordinates":[7.156261,51.549971]},"properties":{"name":"Container Terminal Herne CTH","function":"Bimodales Terminal · Schiene / Straße"}},{"type":"Feature","geometry":{"type":"Point","coordinates":[6.97769,50.978892]},"properties":{"name":"CTS Container Terminal Köln","function":"Trimodales Terminal · Schiene / Wasserstraße / Straße"}},{"type":"Feature","geometry":{"type":"Point","coordinates":[8.724516,53.861031]},"properties":{"name":"Cuxport Multipurpose Terminal","function":"Trimodales Terminal · Schiene / Wasserstraße / Straße"}},{"type":"Feature","geometry":{"type":"Point","coordinates":[6.739392,51.219672]},"properties":{"name":"Düsseldorfer Container Hafen DCH","function":"Trimodales Terminal · Schiene / Wasserstraße / Straße"}},{"type":"Feature","geometry":{"type":"Point","coordinates":[11.053573,49.395251]},"properties":{"name":"TriCon Container-Terminal Nürnberg","function":"Trimodales Terminal · Schiene / Wasserstraße / Straße"}},{"type":"Feature","geometry":{"type":"Point","coordinates":[8.031212,52.29179]},"properties":{"name":"Hafen Osnabrück","function":"Bimodales Terminal · Schiene / Straße"}},{"type":"Feature","geometry":{"type":"Point","coordinates":[8.024952,52.298296]},"properties":{"name":"NOSTA Group Osnabrück KV-Terminal","function":"Bimodales Terminal · Schiene / Straße"}},{"type":"Feature","geometry":{"type":"Point","coordinates":[6.70905,49.378125]},"properties":{"name":"Puhl Spedition Containerterminal Beckingen","function":"Bimodales Terminal · Schiene / Straße"}},{"type":"Feature","geometry":{"type":"Point","coordinates":[7.365646,52.970633]},"properties":{"name":"DUK Dörpen","function":"Trimodales Terminal · Schiene / Wasserstraße / Straße"}},{"type":"Feature","geometry":{"type":"Point","coordinates":[7.439523,51.527736]},"properties":{"name":"Container Terminal Dortmund CTD","function":"Trimodales Terminal · Schiene / Wasserstraße / Straße"}},{"type":"Feature","geometry":{"type":"Point","coordinates":[7.420632,51.536726]},"properties":{"name":"CTD 2 Container Terminal Dortmund","function":"Bimodales Terminal · Schiene / Straße"}},{"type":"Feature","geometry":{"type":"Point","coordinates":[8.378488,49.233559]},"properties":{"name":"DP World Germersheim","function":"Trimodales Terminal · Schiene / Wasserstraße / Straße"}},{"type":"Feature","geometry":{"type":"Point","coordinates":[13.702115,51.054479]},"properties":{"name":"GVZ Emons-Terminal Dresden","function":"Bimodales Terminal · Schiene / Straße"}},{"type":"Feature","geometry":{"type":"Point","coordinates":[6.735474,51.396332]},"properties":{"name":"D3T Duisburg Trimodal Terminal","function":"Trimodales Terminal · Schiene / Wasserstraße / Straße"}},{"type":"Feature","geometry":{"type":"Point","coordinates":[6.751738,51.455034]},"properties":{"name":"Duisburg Hutchison","function":"Trimodales Terminal · Schiene / Wasserstraße / Straße"}},{"type":"Feature","geometry":{"type":"Point","coordinates":[6.730845,51.39267]},"properties":{"name":"DIT Duisburg Intermodal Terminal","function":"Trimodales Terminal · Schiene / Wasserstraße / Straße"}},{"type":"Feature","geometry":{"type":"Point","coordinates":[6.731886,51.398]},"properties":{"name":"DKT Duisburg Kombiterminal","function":"Bimodales Terminal · Schiene / Straße"}},{"type":"Feature","geometry":{"type":"Point","coordinates":[6.678126,51.381243]},"properties":{"name":"Ziel Terminal Duisburg","function":"Bimodales Terminal · Schiene / Straße"}},{"type":"Feature","geometry":{"type":"Point","coordinates":[10.870059,48.382999]},"properties":{"name":"DUSS-Terminal Augsburg-Oberhausen","function":"Bimodales Terminal · Schiene / Straße"}},{"type":"Feature","geometry":{"type":"Point","coordinates":[7.604017,47.587256]},"properties":{"name":"DUSS-Terminal Basel - Weil am Rhein","function":"Bimodales Terminal · Schiene / Straße"}},{"type":"Feature","geometry":{"type":"Point","coordinates":[9.545402,51.091987]},"properties":{"name":"DUSS-Terminal Beiseförth","function":"Bimodales Terminal · Schiene / Straße"}},{"type":"Feature","geometry":{"type":"Point","coordinates":[6.74967,51.451654]},"properties":{"name":"Rail Hub Duisburg","function":"Bimodales Terminal · Schiene / Straße"}},{"type":"Feature","geometry":{"type":"Point","coordinates":[11.124933,50.990694]},"properties":{"name":"DUSS-Terminal Erfurt","function":"Bimodales Terminal · Schiene / Straße"}},{"type":"Feature","geometry":{"type":"Point","coordinates":[8.722452,50.117059]},"properties":{"name":"DUSS Terminal Frankfurt/Main-Ost","function":"Bimodales Terminal · Schiene / Straße"}},{"type":"Feature","geometry":{"type":"Point","coordinates":[9.929246,51.54515]},"properties":{"name":"DUSS-Terminal Göttingen","function":"Bimodales Terminal · Schiene / Straße"}},{"type":"Feature","geometry":{"type":"Point","coordinates":[13.290726,52.363779]},"properties":{"name":"DUSS-Terminal Großbeeren","function":"Bimodales Terminal · Schiene / Straße"}},{"type":"Feature","geometry":{"type":"Point","coordinates":[10.101197,53.512296]},"properties":{"name":"DUSS-Terminal Hamburg-Billwerder","function":"Bimodales Terminal · Schiene / Straße"}},{"type":"Feature","geometry":{"type":"Point","coordinates":[11.402161,48.787368]},"properties":{"name":"DUSS-Terminal Ingolstadt","function":"Bimodales Terminal · Schiene / Straße"}},{"type":"Feature","geometry":{"type":"Point","coordinates":[8.423487,48.998416]},"properties":{"name":"DUSS-Terminal Karlsruhe","function":"Bimodales Terminal · Schiene / Straße"}},{"type":"Feature","geometry":{"type":"Point","coordinates":[6.919819,50.891441]},"properties":{"name":"DUSS-Terminal Köln Eifeltor","function":"Bimodales Terminal · Schiene / Straße"}},{"type":"Feature","geometry":{"type":"Point","coordinates":[9.164259,48.857252]},"properties":{"name":"DUSS-Terminal Kornwestheim","function":"Bimodales Terminal · Schiene / Straße"}},{"type":"Feature","geometry":{"type":"Point","coordinates":[12.141518,48.548056]},"properties":{"name":"DUSS-Terminal Landshut","function":"Bimodales Terminal · Schiene / Straße"}},{"type":"Feature","geometry":{"type":"Point","coordinates":[12.303024,51.387818]},"properties":{"name":"DUSS-Terminal Leipzig","function":"Bimodales Terminal · Schiene / Straße"}},{"type":"Feature","geometry":{"type":"Point","coordinates":[8.44256,49.505537]},"properties":{"name":"DUSS-Terminal Mannheim-Handelshafen","function":"Bimodales Terminal · Schiene / Straße"}},{"type":"Feature","geometry":{"type":"Point","coordinates":[11.700122,48.145515]},"properties":{"name":"DUSS-Terminal München-Riem","function":"Bimodales Terminal · Schiene / Straße"}},{"type":"Feature","geometry":{"type":"Point","coordinates":[12.143325,48.999451]},"properties":{"name":"DUSS-Terminal Regensburg","function":"Bimodales Terminal · Schiene / Straße"}},{"type":"Feature","geometry":{"type":"Point","coordinates":[9.260634,48.76926]},"properties":{"name":"DUSS-Terminal Stuttgart Hafen","function":"Bimodales Terminal · Schiene / Straße"}},{"type":"Feature","geometry":{"type":"Point","coordinates":[9.210109,49.161789]},"properties":{"name":"Kombi Terminal Heilbronn","function":"Trimodales Terminal · Schiene / Wasserstraße / Straße"}},{"type":"Feature","geometry":{"type":"Point","coordinates":[9.974416,48.458577]},"properties":{"name":"DUSS-Terminal Ulm","function":"Bimodales Terminal · Schiene / Straße"}},{"type":"Feature","geometry":{"type":"Point","coordinates":[7.245499,51.280006]},"properties":{"name":"DUSS-Terminal Wuppertal","function":"Bimodales Terminal · Schiene / Straße"}},{"type":"Feature","geometry":{"type":"Point","coordinates":[14.514161,52.353986]},"properties":{"name":"KV Terminal East Gate (Frankfurt Oder)","function":"Bimodales Terminal · Schiene / Straße"}},{"type":"Feature","geometry":{"type":"Point","coordinates":[14.602925,52.207942]},"properties":{"name":"Hafen Eisenhüttenstadt (Gbf Ziltendorf)","function":"Bimodales Terminal · Schiene / Straße"}},{"type":"Feature","geometry":{"type":"Point","coordinates":[11.770207,52.986101]},"properties":{"name":"ElbePort Wittenberge","function":"Trimodales Terminal · Schiene / Wasserstraße / Straße"}},{"type":"Feature","geometry":{"type":"Point","coordinates":[7.20521,53.33914]},"properties":{"name":"epas Terminal Nordkai Emden","function":"Trimodales Terminal · Schiene / Wasserstraße / Straße"}},{"type":"Feature","geometry":{"type":"Point","coordinates":[6.254259,51.831025]},"properties":{"name":"Contargo Terminal Emmerich","function":"Trimodales Terminal · Schiene / Wasserstraße / Straße"}},{"type":"Feature","geometry":{"type":"Point","coordinates":[7.816781,48.594563]},"properties":{"name":"ETK Euro Terminal Kehl","function":"Trimodales Terminal · Schiene / Wasserstraße / Straße"}},{"type":"Feature","geometry":{"type":"Point","coordinates":[9.922796,53.525207]},"properties":{"name":"EUROGATE Container Terminal Hamburg - CTH","function":"Bimodales Terminal · Wasserstraße / Straße"}},{"type":"Feature","geometry":{"type":"Point","coordinates":[10.692131,52.424924]},"properties":{"name":"Fallersleben Containerterminal","function":"Bimodales Terminal · Wasserstraße / Straße"}},{"type":"Feature","geometry":{"type":"Point","coordinates":[14.615485,51.71413]},"properties":{"name":"Frachtterminal Lausitz","function":"Bimodales Terminal · Schiene / Straße"}},{"type":"Feature","geometry":{"type":"Point","coordinates":[8.248433,50.023664]},"properties":{"name":"Frankenbach Trimodal Terminal Mainz","function":"Trimodales Terminal · Schiene / Wasserstraße / Straße"}},{"type":"Feature","geometry":{"type":"Point","coordinates":[6.730149,51.380933]},"properties":{"name":"RRT - logport ll (HGK)","function":"Trimodales Terminal · Schiene / Wasserstraße / Straße"}},{"type":"Feature","geometry":{"type":"Point","coordinates":[12.720563,48.179698]},"properties":{"name":"Chemiepark Gendorf Terminal","function":"Bimodales Terminal · Schiene / Straße"}},{"type":"Feature","geometry":{"type":"Point","coordinates":[8.479384,49.75475]},"properties":{"name":"GUT Gernsheim Terminal","function":"Trimodales Terminal · Schiene / Wasserstraße / Straße"}},{"type":"Feature","geometry":{"type":"Point","coordinates":[10.222949,48.626027]},"properties":{"name":"BSH Hausgeräte Logistikzentrum Giengen","function":"Bimodales Terminal · Schiene / Straße"}},{"type":"Feature","geometry":{"type":"Point","coordinates":[12.185999,51.305449]},"properties":{"name":"Karl Schmidt Spedition Großlehna","function":"Bimodales Terminal · Schiene / Straße"}},{"type":"Feature","geometry":{"type":"Point","coordinates":[8.304909,49.996154]},"properties":{"name":"Contargo Terminal Gustavsburg","function":"Bimodales Terminal · Wasserstraße / Straße"}},{"type":"Feature","geometry":{"type":"Point","coordinates":[12.970899,48.815322]},"properties":{"name":"Hafen Deggendorf","function":"Trimodales Terminal · Schiene / Wasserstraße / Straße"}},{"type":"Feature","geometry":{"type":"Point","coordinates":[13.188515,52.68296]},"properties":{"name":"Hafen Velten","function":"Trimodales Terminal · Schiene / Wasserstraße / Straße"}},{"type":"Feature","geometry":{"type":"Point","coordinates":[11.410437,52.278582]},"properties":{"name":"UHH Container Terminal Haldensleben","function":"Trimodales Terminal · Schiene / Wasserstraße / Straße"}},{"type":"Feature","geometry":{"type":"Point","coordinates":[9.934255,53.507064]},"properties":{"name":"HHLA Container Terminal Altenwerder CTA","function":"Trimodales Terminal · Schiene / Wasserstraße / Straße"}},{"type":"Feature","geometry":{"type":"Point","coordinates":[9.893963,53.528214]},"properties":{"name":"Rhenus Midgard Terminal Dradenau","function":"Trimodales Terminal · Schiene / Wasserstraße / Straße"}},{"type":"Feature","geometry":{"type":"Point","coordinates":[9.897498,53.532158]},"properties":{"name":"Eurokombi Terminal Hamburg","function":"Bimodales Terminal · Schiene / Straße"}},{"type":"Feature","geometry":{"type":"Point","coordinates":[10.00955,53.530302]},"properties":{"name":"UNIKAI Terminal O'Swaldkai","function":"Trimodales Terminal · Schiene / Wasserstraße / Straße"}},{"type":"Feature","geometry":{"type":"Point","coordinates":[9.986592,53.531476]},"properties":{"name":"C. Steinweg Süd-West Terminal","function":"Trimodales Terminal · Schiene / Wasserstraße / Straße"}},{"type":"Feature","geometry":{"type":"Point","coordinates":[9.983229,53.488186]},"properties":{"name":"Wallmann & Co. Hamburg","function":"Trimodales Terminal · Schiene / Wasserstraße / Straße"}},{"type":"Feature","geometry":{"type":"Point","coordinates":[9.657968,52.422235]},"properties":{"name":"Containerterminal Hannover - Nordhafen","function":"Trimodales Terminal · Schiene / Wasserstraße / Straße"}},{"type":"Feature","geometry":{"type":"Point","coordinates":[9.686367,52.362799]},"properties":{"name":"Hannover-Linden Hafen Ubf","function":"Bimodales Terminal · Schiene / Straße"}},{"type":"Feature","geometry":{"type":"Point","coordinates":[8.767406,53.101465]},"properties":{"name":"J. MÜLLER Terminal Bremen","function":"Trimodales Terminal · Schiene / Wasserstraße / Straße"}},{"type":"Feature","geometry":{"type":"Point","coordinates":[12.963735,52.558729]},"properties":{"name":"Havel Port Berlin","function":"Bimodales Terminal · Wasserstraße / Straße"}},{"type":"Feature","geometry":{"type":"Point","coordinates":[6.909425,50.882539]},"properties":{"name":"Container Terminal Hürth","function":"Bimodales Terminal · Schiene / Straße"}},{"type":"Feature","geometry":{"type":"Point","coordinates":[9.516166,51.277344]},"properties":{"name":"Kassel Ubf","function":"Bimodales Terminal · Schiene / Straße"}},{"type":"Feature","geometry":{"type":"Point","coordinates":[6.863976,50.862934]},"properties":{"name":"KCG Knapsack","function":"Bimodales Terminal · Schiene / Straße"}},{"type":"Feature","geometry":{"type":"Point","coordinates":[6.662734,51.346289]},"properties":{"name":"KCT Krefeld","function":"Trimodales Terminal · Schiene / Wasserstraße / Straße"}},{"type":"Feature","geometry":{"type":"Point","coordinates":[11.916182,48.90833]},"properties":{"name":"Kelheim Hafen","function":"Trimodales Terminal · Schiene / Wasserstraße / Straße"}},{"type":"Feature","geometry":{"type":"Point","coordinates":[10.169306,54.335317]},"properties":{"name":"KombiPort Kiel Ostuferhafen","function":"Trimodales Terminal · Schiene / Wasserstraße / Straße"}},{"type":"Feature","geometry":{"type":"Point","coordinates":[7.591549,50.39298]},"properties":{"name":"Contargo Terminal Koblenz","function":"Trimodales Terminal · Schiene / Wasserstraße / Straße"}},{"type":"Feature","geometry":{"type":"Point","coordinates":[6.980168,50.980374]},"properties":{"name":"Köln-Niehl Schmidt","function":"Trimodales Terminal · Schiene / Wasserstraße / Straße"}},{"type":"Feature","geometry":{"type":"Point","coordinates":[12.820131,48.191126]},"properties":{"name":"KombiTerminal Burghausen","function":"Bimodales Terminal · Schiene / Straße"}},{"type":"Feature","geometry":{"type":"Point","coordinates":[8.409067,49.535138]},"properties":{"name":"Kombi-Terminal Ludwigshafen KTL","function":"Bimodales Terminal · Schiene / Straße"}},{"type":"Feature","geometry":{"type":"Point","coordinates":[8.867869,51.281727]},"properties":{"name":"Korbach","function":"Bimodales Terminal · Schiene / Straße"}},{"type":"Feature","geometry":{"type":"Point","coordinates":[13.506204,51.466577]},"properties":{"name":"RailPort Elsterwerda","function":"Bimodales Terminal · Schiene / Straße"}},{"type":"Feature","geometry":{"type":"Point","coordinates":[8.054539,50.379832]},"properties":{"name":"Limburg","function":"Bimodales Terminal · Schiene / Straße"}},{"type":"Feature","geometry":{"type":"Point","coordinates":[10.695044,53.888484]},"properties":{"name":"Terminal Nordlandkai Lübeck","function":"Trimodales Terminal · Schiene / Wasserstraße / Straße"}},{"type":"Feature","geometry":{"type":"Point","coordinates":[10.79058,53.891224]},"properties":{"name":"Terminal Schlutup Lübeck","function":"Trimodales Terminal · Schiene / Wasserstraße / Straße"}},{"type":"Feature","geometry":{"type":"Point","coordinates":[10.777408,53.900133]},"properties":{"name":"Terminal Seelandkai Lübeck","function":"Trimodales Terminal · Schiene / Wasserstraße / Straße"}},{"type":"Feature","geometry":{"type":"Point","coordinates":[10.855961,53.936843]},"properties":{"name":"Baltic Rail Gate","function":"Trimodales Terminal · Schiene / Wasserstraße / Straße"}},{"type":"Feature","geometry":{"type":"Point","coordinates":[11.686145,52.200729]},"properties":{"name":"Magdeburg Hanse-Terminal","function":"Trimodales Terminal · Schiene / Wasserstraße / Straße"}},{"type":"Feature","geometry":{"type":"Point","coordinates":[8.461301,49.497301]},"properties":{"name":"DP World Mannheim","function":"Trimodales Terminal · Schiene / Wasserstraße / Straße"}},{"type":"Feature","geometry":{"type":"Point","coordinates":[9.935866,52.378983]},"properties":{"name":"Megahub Lehrte","function":"Bimodales Terminal · Schiene / Straße"}},{"type":"Feature","geometry":{"type":"Point","coordinates":[8.94611,52.302194]},"properties":{"name":"Mindener Industriehafen II Containerterminal","function":"Trimodales Terminal · Schiene / Wasserstraße / Straße"}},{"type":"Feature","geometry":{"type":"Point","coordinates":[6.695005,49.79743]},"properties":{"name":"Am Zehnhoff-Söns Multimodal Terminal Trier","function":"Trimodales Terminal · Schiene / Wasserstraße / Straße"}},{"type":"Feature","geometry":{"type":"Point","coordinates":[6.706983,51.216807]},"properties":{"name":"Neuss Trimodal","function":"Trimodales Terminal · Schiene / Wasserstraße / Straße"}},{"type":"Feature","geometry":{"type":"Point","coordinates":[8.967375,50.752817]},"properties":{"name":"Industriepark Nieder-Ofleiden","function":"Bimodales Terminal · Schiene / Straße"}},{"type":"Feature","geometry":{"type":"Point","coordinates":[10.776384,51.499794]},"properties":{"name":"Nordhausen Paul Will","function":"Bimodales Terminal · Schiene / Straße"}},{"type":"Feature","geometry":{"type":"Point","coordinates":[13.385843,48.592716]},"properties":{"name":"Bayernhafen Passau","function":"Trimodales Terminal · Schiene / Wasserstraße / Straße"}},{"type":"Feature","geometry":{"type":"Point","coordinates":[9.966907,50.84561]},"properties":{"name":"Werra Kombi Terminal Philippsthal","function":"Bimodales Terminal · Schiene / Straße"}},{"type":"Feature","geometry":{"type":"Point","coordinates":[14.115404,53.060269]},"properties":{"name":"Container-Terminal Uckermark","function":"Bimodales Terminal · Schiene / Straße"}},{"type":"Feature","geometry":{"type":"Point","coordinates":[12.035596,51.858465]},"properties":{"name":"Aken Hafen","function":"Trimodales Terminal · Schiene / Wasserstraße / Straße"}},{"type":"Feature","geometry":{"type":"Point","coordinates":[13.709843,51.06394]},"properties":{"name":"Alberthafen Dresden-Friedrichstadt","function":"Trimodales Terminal · Schiene / Wasserstraße / Straße"}},{"type":"Feature","geometry":{"type":"Point","coordinates":[9.104714,49.968185]},"properties":{"name":"Trimodales Containerterminal Aschaffenburg -TCA","function":"Trimodales Terminal · Schiene / Wasserstraße / Straße"}},{"type":"Feature","geometry":{"type":"Point","coordinates":[10.874924,49.908987]},"properties":{"name":"baymodal Bamberg","function":"Bimodales Terminal · Schiene / Straße"}},{"type":"Feature","geometry":{"type":"Point","coordinates":[13.336691,52.53646]},"properties":{"name":"BEHALA Westhafen","function":"Trimodales Terminal · Schiene / Wasserstraße / Straße"}},{"type":"Feature","geometry":{"type":"Point","coordinates":[13.78214,52.852388]},"properties":{"name":"Binnenhafen Eberswalde","function":"Trimodales Terminal · Schiene / Wasserstraße / Straße"}},{"type":"Feature","geometry":{"type":"Point","coordinates":[7.775184,51.610582]},"properties":{"name":"Logistikzentrum RuhrOst Terminal Bönen","function":"Bimodales Terminal · Schiene / Straße"}},{"type":"Feature","geometry":{"type":"Point","coordinates":[8.143223,53.593413]},"properties":{"name":"Rail Terminal Wilhelmshaven","function":"Bimodales Terminal · Schiene / Straße"}},{"type":"Feature","geometry":{"type":"Point","coordinates":[10.211845,50.034344]},"properties":{"name":"Schweinfurt TRANSLOG Railport","function":"Bimodales Terminal · Schiene / Straße"}},{"type":"Feature","geometry":{"type":"Point","coordinates":[12.130933,49.018083]},"properties":{"name":"Container Terminal Regensburg CTR","function":"Trimodales Terminal · Schiene / Wasserstraße / Straße"}},{"type":"Feature","geometry":{"type":"Point","coordinates":[12.155394,48.980345]},"properties":{"name":"DUSS-Terminal Regensburg Süd","function":"Bimodales Terminal · Schiene / Straße"}},{"type":"Feature","geometry":{"type":"Point","coordinates":[8.984845,52.29887]},"properties":{"name":"RegioPort OWL","function":"Bimodales Terminal · Wasserstraße / Straße"}},{"type":"Feature","geometry":{"type":"Point","coordinates":[8.489038,52.626499]},"properties":{"name":"BTR-Transportlogistik Bahn-Terminal Rehden","function":"Bimodales Terminal · Schiene / Straße"}},{"type":"Feature","geometry":{"type":"Point","coordinates":[7.443933,52.315031]},"properties":{"name":"Rheine GVZ Containerterminal (KLV)","function":"Bimodales Terminal · Schiene / Straße"}},{"type":"Feature","geometry":{"type":"Point","coordinates":[13.276655,51.319056]},"properties":{"name":"SBO Hafen Riesa","function":"Trimodales Terminal · Schiene / Wasserstraße / Straße"}},{"type":"Feature","geometry":{"type":"Point","coordinates":[12.219934,51.879809]},"properties":{"name":"Industriehafen Roßlau","function":"Trimodales Terminal · Schiene / Wasserstraße / Straße"}},{"type":"Feature","geometry":{"type":"Point","coordinates":[12.100166,54.139292]},"properties":{"name":"Rostock Trimodal RTM","function":"Trimodales Terminal · Schiene / Wasserstraße / Straße"}},{"type":"Feature","geometry":{"type":"Point","coordinates":[6.735538,51.428554]},"properties":{"name":"RRT - Duisburg Parallelhafen (HGK)","function":"Trimodales Terminal · Schiene / Wasserstraße / Straße"}},{"type":"Feature","geometry":{"type":"Point","coordinates":[7.004389,49.251058]},"properties":{"name":"Puhl Containerbahnhof Saarbrücken","function":"Bimodales Terminal · Schiene / Straße"}},{"type":"Feature","geometry":{"type":"Point","coordinates":[10.435311,52.188174]},"properties":{"name":"KLV-Terminal Salzgitter","function":"Bimodales Terminal · Schiene / Straße"}},{"type":"Feature","geometry":{"type":"Point","coordinates":[13.592186,54.484736]},"properties":{"name":"Mukran Port - Sassnitz","function":"Trimodales Terminal · Schiene / Wasserstraße / Straße"}},{"type":"Feature","geometry":{"type":"Point","coordinates":[11.962854,51.387243]},"properties":{"name":"Kombi Terminal Schkopau","function":"Bimodales Terminal · Schiene / Straße"}},{"type":"Feature","geometry":{"type":"Point","coordinates":[14.326149,53.094494]},"properties":{"name":"Schwedter Hafen","function":"Trimodales Terminal · Schiene / Wasserstraße / Straße"}},{"type":"Feature","geometry":{"type":"Point","coordinates":[9.257823,48.769994]},"properties":{"name":"DP World Stuttgart","function":"Trimodales Terminal · Schiene / Wasserstraße / Straße"}},{"type":"Feature","geometry":{"type":"Point","coordinates":[11.459517,53.900179]},"properties":{"name":"Seehafen Wismar","function":"Trimodales Terminal · Schiene / Wasserstraße / Straße"}},{"type":"Feature","geometry":{"type":"Point","coordinates":[9.507719,53.654584]},"properties":{"name":"Buss Terminal Stade","function":"Bimodales Terminal · Wasserstraße / Straße"}},{"type":"Feature","geometry":{"type":"Point","coordinates":[9.509492,53.624634]},"properties":{"name":"Industriebahnhof Stade-Brunshausen (IBB)","function":"Bimodales Terminal · Schiene / Straße"}},{"type":"Feature","geometry":{"type":"Point","coordinates":[13.877518,51.475748]},"properties":{"name":"STR-Terminal Schwarzheide","function":"Bimodales Terminal · Schiene / Straße"}},{"type":"Feature","geometry":{"type":"Point","coordinates":[12.667949,48.896435]},"properties":{"name":"Hafen Straubing-Sand - KV-Terminal","function":"Bimodales Terminal · Schiene / Straße"}},{"type":"Feature","geometry":{"type":"Point","coordinates":[6.945267,51.00754]},"properties":{"name":"Combiconnect Köln Nord","function":"Bimodales Terminal · Schiene / Straße"}},{"type":"Feature","geometry":{"type":"Point","coordinates":[9.98322,54.090577]},"properties":{"name":"Kombi-Verkehrsterminal Neumünster","function":"Bimodales Terminal · Schiene / Straße"}},{"type":"Feature","geometry":{"type":"Point","coordinates":[6.607958,51.625598]},"properties":{"name":"SLW Terminal Wesel","function":"Trimodales Terminal · Schiene / Wasserstraße / Straße"}},{"type":"Feature","geometry":{"type":"Point","coordinates":[8.373587,49.638684]},"properties":{"name":"Container Terminal - Rhenania Worms","function":"Trimodales Terminal · Schiene / Wasserstraße / Straße"}},{"type":"Feature","geometry":{"type":"Point","coordinates":[8.868411,47.759407]},"properties":{"name":"Terminal Singen TSG","function":"Bimodales Terminal · Schiene / Straße"}},{"type":"Feature","geometry":{"type":"Point","coordinates":[6.804677,51.141233]},"properties":{"name":"uct Umschlag Container Terminal Dormagen","function":"Trimodales Terminal · Schiene / Wasserstraße / Straße"}},{"type":"Feature","geometry":{"type":"Point","coordinates":[6.705315,51.218991]},"properties":{"name":"UCT Umschlag Container Terminal Neuss","function":"Trimodales Terminal · Schiene / Wasserstraße / Straße"}},{"type":"Feature","geometry":{"type":"Point","coordinates":[7.083865,51.676177]},"properties":{"name":"Umschlag Terminal Marl","function":"Bimodales Terminal · Schiene / Straße"}},{"type":"Feature","geometry":{"type":"Point","coordinates":[12.236402,49.321398]},"properties":{"name":"BMW Logistikpark Wackersdorf","function":"Bimodales Terminal · Schiene / Straße"}},{"type":"Feature","geometry":{"type":"Point","coordinates":[8.358523,51.422032]},"properties":{"name":"WLE Güterverkehrsstellen Warstein","function":"Bimodales Terminal · Schiene / Straße"}},{"type":"Feature","geometry":{"type":"Point","coordinates":[7.591562,47.607111]},"properties":{"name":"Contargo Terminal Weil am Rhein","function":"Trimodales Terminal · Schiene / Wasserstraße / Straße"}},{"type":"Feature","geometry":{"type":"Point","coordinates":[6.605857,51.631646]},"properties":{"name":"Jerich International Wesel Distribution Centre","function":"Trimodales Terminal · Schiene / Wasserstraße / Straße"}},{"type":"Feature","geometry":{"type":"Point","coordinates":[8.151474,53.590132]},"properties":{"name":"EUROGATE Container Terminal Wilhelmshaven","function":"Trimodales Terminal · Schiene / Wasserstraße / Straße"}},{"type":"Feature","geometry":{"type":"Point","coordinates":[10.750192,52.436107]},"properties":{"name":"Umschlagbahnhof Wolfsburg im GVZ","function":"Bimodales Terminal · Schiene / Straße"}},{"type":"Feature","geometry":{"type":"Point","coordinates":[6.200655,51.328849]},"properties":{"name":"CargoBeamer-Terminal Kaldenkirchen","function":"Bimodales Terminal · Schiene / Straße"}},{"type":"Feature","geometry":{"type":"Point","coordinates":[13.640825,52.306677]},"properties":{"name":"METRANS Terminal Königs Wusterhausen","function":"Trimodales Terminal · Schiene / Wasserstraße / Straße"}},{"type":"Feature","geometry":{"type":"Point","coordinates":[8.934777,48.031722]},"properties":{"name":"Container Terminal Fridingen CTF","function":"Bimodales Terminal · Schiene / Straße"}},{"type":"Feature","geometry":{"type":"Point","coordinates":[8.503757,49.419434]},"properties":{"name":"Rhenus Ro-Ro Terminal Mannheim","function":"Bimodales Terminal · Wasserstraße / Straße"}},{"type":"Feature","geometry":{"type":"Point","coordinates":[7.018309,50.824367]},"properties":{"name":"Kombipark Niederkassel-Lülsdorf","function":"Trimodales Terminal · Schiene / Wasserstraße / Straße"}},{"type":"Feature","geometry":{"type":"Point","coordinates":[12.922411,50.814251]},"properties":{"name":"Railport Chemnitz","function":"Bimodales Terminal · Schiene / Straße"}},{"type":"Feature","geometry":{"type":"Point","coordinates":[8.631226,49.878438]},"properties":{"name":"Railport Darmstadt","function":"Bimodales Terminal · Schiene / Straße"}},{"type":"Feature","geometry":{"type":"Point","coordinates":[9.752015,51.573205]},"properties":{"name":"Adelebser Container Terminal -ACT","function":"Bimodales Terminal · Schiene / Straße"}},{"type":"Feature","geometry":{"type":"Point","coordinates":[7.122255,51.509627]},"properties":{"name":"Wheels Logistics Gelsenkirchen","function":"Bimodales Terminal · Schiene / Straße"}},{"type":"Feature","geometry":{"type":"Point","coordinates":[12.006914,51.48011]},"properties":{"name":"Railport Halle an der Saale","function":"Bimodales Terminal · Schiene / Straße"}},{"type":"Feature","geometry":{"type":"Point","coordinates":[10.787551,53.899029]},"properties":{"name":"Lehmannkai 2 Terminal","function":"Trimodales Terminal · Schiene / Wasserstraße / Straße"}},{"type":"Feature","geometry":{"type":"Point","coordinates":[8.025158,52.300807]},"properties":{"name":"Container Terminal Osnabrück CTOS","function":"Bimodales Terminal · Schiene / Straße"}},{"type":"Feature","geometry":{"type":"Point","coordinates":[6.78341,51.460562]},"properties":{"name":"DUSS-Terminal Duisburg KV-Hub Rhein-Ruhr","function":"Bimodales Terminal · Schiene / Straße"}},{"type":"Feature","geometry":{"type":"Point","coordinates":[14.923545,51.225534]},"properties":{"name":"Container Terminal Kodersdorf","function":"Bimodales Terminal · Schiene / Straße"}},{"type":"Feature","geometry":{"type":"Point","coordinates":[10.865042,48.405225]},"properties":{"name":"Terminal Augsburg-Gersthofen","function":"Bimodales Terminal · Schiene / Straße"}},{"type":"Feature","geometry":{"type":"Point","coordinates":[9.213469,48.504318]},"properties":{"name":"Zero Emissions Logistics Terminal (ZELT RT) Reutlingen","function":"Bimodales Terminal · Schiene / Straße"}},{"type":"Feature","geometry":{"type":"Point","coordinates":[8.653508,48.464997]},"properties":{"name":"BFT Black Forest Terminal Horb","function":"Bimodales Terminal · Schiene / Straße"}},{"type":"Feature","geometry":{"type":"Point","coordinates":[6.764638,51.456384]},"properties":{"name":"DGT - Duisburg Gateway Terminal","function":"Trimodales Terminal · Schiene / Wasserstraße / Straße"}},{"type":"Feature","geometry":{"type":"Point","coordinates":[9.713371,50.863637]},"properties":{"name":"Bad Hersfeld KV Terminal","function":"Bimodales Terminal · Schiene / Straße"}},{"type":"Feature","geometry":{"type":"Point","coordinates":[8.742668,53.100169]},"properties":{"name":"Breakbulk Terminal Neustädter Hafen","function":"Bimodales Terminal · Wasserstraße / Straße"}},{"type":"Feature","geometry":{"type":"Point","coordinates":[14.544336,51.889334]},"properties":{"name":"Jänschwalde Terminal","function":"Bimodales Terminal · Schiene / Straße"}},{"type":"Feature","geometry":{"type":"Point","coordinates":[7.765731,51.677133]},"properties":{"name":"Maxi Terminal Hamm","function":"Bimodales Terminal · Schiene / Straße"}},{"type":"Feature","geometry":{"type":"Point","coordinates":[10.135074,54.316606]},"properties":{"name":"KombiPort Kiel Schwedenkai","function":"Trimodales Terminal · Schiene / Wasserstraße / Straße"}},{"type":"Feature","geometry":{"type":"Point","coordinates":[7.805065,51.666355]},"properties":{"name":"MULTI HUBs Westfalen","function":"Bimodales Terminal · Schiene / Straße"}},{"type":"Feature","geometry":{"type":"Point","coordinates":[12.214475,53.212152]},"properties":{"name":"TUL agroservice Falkenhagen KV Terminal","function":"Bimodales Terminal · Schiene / Straße"}},{"type":"Feature","geometry":{"type":"Point","coordinates":[12.141299,49.018557]},"properties":{"name":"Trailerport Bayernhafen Regensburg","function":"Bimodales Terminal · Schiene / Straße"}},{"type":"Feature","geometry":{"type":"Point","coordinates":[10.138528,54.316241]},"properties":{"name":"KombiPort Kiel Norwegenkai","function":"Trimodales Terminal · Schiene / Wasserstraße / Straße"}},{"type":"Feature","geometry":{"type":"Point","coordinates":[12.548267,50.829922]},"properties":{"name":"Terminal Glauchau Emons","function":"Bimodales Terminal · Schiene / Straße"}},{"type":"Feature","geometry":{"type":"Point","coordinates":[6.615964,51.635645]},"properties":{"name":"Schwerlast Terminal Niederrhein","function":"Bimodales Terminal · Wasserstraße / Straße"}},{"type":"Feature","geometry":{"type":"Point","coordinates":[11.48769,48.195064]},"properties":{"name":"KV-Terminal / Rangierbahnhof München Nord","function":"Bimodales Terminal · Schiene / Straße"}},{"type":"Feature","geometry":{"type":"Point","coordinates":[6.711103,51.522145]},"properties":{"name":"MTD - Multimodal Terminal Duisburg (logport VI)","function":"Trimodales Terminal · Schiene / Wasserstraße / Straße"}},{"type":"Feature","geometry":{"type":"Point","coordinates":[10.030985,49.132332]},"properties":{"name":"P&G Terminal Crailsheim","function":"Bimodales Terminal · Schiene / Straße"}},{"type":"Feature","geometry":{"type":"Point","coordinates":[9.27254,47.918219]},"properties":{"name":"Pfullendorf","function":"Bimodales Terminal · Schiene / Straße"}},{"type":"Feature","geometry":{"type":"Point","coordinates":[7.330901,50.483268]},"properties":{"name":"Brohl Umladebahnhof","function":"Bimodales Terminal · Schiene / Straße"}},{"type":"Feature","geometry":{"type":"Point","coordinates":[7.512663,51.534003]},"properties":{"name":"Trailer Terminal Westfalenhütte","function":"Bimodales Terminal · Schiene / Straße"}},{"type":"Feature","geometry":{"type":"Point","coordinates":[12.864677,48.797111]},"properties":{"name":"Bayernhafen InfraPark Plattling","function":"Bimodales Terminal · Schiene / Straße"}},{"type":"Feature","geometry":{"type":"Point","coordinates":[10.232611,49.213211]},"properties":{"name":"GVZ InterFranken","function":"Bimodales Terminal · Schiene / Straße"}},{"type":"Feature","geometry":{"type":"Point","coordinates":[8.371452,49.987837]},"properties":{"name":"Bischofsheim","function":"Bimodales Terminal · Schiene / Straße"}},{"type":"Feature","geometry":{"type":"Point","coordinates":[13.661676,51.306241]},"properties":{"name":"Containerterminal Lampertswalde","function":"Bimodales Terminal · Schiene / Straße"}},{"type":"Feature","geometry":{"type":"Point","coordinates":[12.248022,51.404979]},"properties":{"name":"Terminal Schkeuditz - LUB","function":"Bimodales Terminal · Schiene / Straße"}}]}
